format  = 'OEF1.1'       ! file format
rectype = 'ML'           ! record type (1L/ML)
refsys  = ECLM J2000     ! default reference system
END_OF_HEADER
2000HW23
! Equinoctial elements: a, e*sin(LP), e*cos(LP), tan(i/2)*sin(LN), tan(i/2)*cos(LN), mean long.
 EQU   2.15455931769288E+00  -0.394935259213096   0.152154645109542    0.049654974155749    0.046409370672352 235.0354580123447
 MJD     51594.924045325 TDT
 MAG  18.260  0.150
! RMS    1.26133E-07   1.17089E-06   1.42932E-06   3.68804E-07   5.06788E-07   1.75316E-04
! EIG   2.01352E-08   8.18599E-08   1.22922E-07   4.08931E-07   8.70067E-07   3.49841E-06
! WEA   0.03257   0.28409  -0.37365   0.06768   0.09672  -0.87446
 COV   1.590961905854418E-14  1.441653272063179E-13 -1.200824030435741E-13
 COV   3.275172066124758E-14  4.657948462682611E-14 -2.002108827117087E-11
 COV   1.370986161405932E-12 -9.476308644919240E-13  2.970773550966937E-13
 COV   4.210915424504691E-13 -1.748013382817969E-10  2.042953162646377E-12
 COV  -2.452338388588174E-13 -3.495036112158220E-13  2.284181883399702E-10
 COV   1.360161674269373E-13  1.715457829288444E-13 -4.097891945664906E-11
 COV   2.568343897162352E-13 -5.867579658077665E-11  3.073571614285146E-08
 NOR   2.455378764634078E+15 -1.359733943461180E+14 -5.949644945954162E+13
 NOR  -1.846209127300290E+13 -1.220746665770655E+13  1.220347537233431E+12
 NOR   6.161327811179277E+13 -5.167890829904487E+13 -9.456385855151219E+12
 NOR   7.649543617643557E+12  6.478938459274431E+11  6.073213410819343E+13
 NOR   1.053103472266775E+13 -8.465971155834392E+12 -7.861293067154530E+11
 NOR   4.931745989264882E+13 -3.130035674075988E+13 -1.380705451302774E+11
 NOR   2.822224761923457E+13  1.106150751378265E+11  1.038154027562987E+10
